{
  "type": "FeatureCollection",
  "features": [
    {
      "type": "Feature",
      "properties": {
        "norad_id": 43783,
        "name": "KAZSTSAT",
        "group": "resource",
        "lat": 36.7384629879568,
        "lon": -142.9319787450438,
        "alt_km": 569.7100869660571,
        "timestamp": "2025-12-22T16:55:17.107863+00:00",
        "meta_object_name": "KAZSTSAT",
        "meta_object_id": "2018-099AB",
        "meta_epoch": "2025-12-21T01:50:44.888352",
        "meta_mean_motion": 14.99364891,
        "meta_eccentricity": 0.00060238,
        "meta_inclination": 97.4527,
        "meta_ra_of_asc_node": 29.903,
        "meta_arg_of_pericenter": 292.687,
        "meta_mean_anomaly": 67.3717,
        "meta_ephemeris_type": 0,
        "meta_classification_type": "U",
        "meta_norad_cat_id": 43783,
        "meta_element_set_no": 999,
        "meta_rev_at_epoch": 38461,
        "meta_bstar": 1.8043656e-05,
        "meta_mean_motion_dot": 1.65e-06,
        "meta_mean_motion_ddot": 0,
        "tle_line1": "1 43783U 18099AB  25355.07690843  .00000165  00000+0  18044-4 0  9991",
        "tle_line2": "2 43783  97.4527  29.9030 0006023 292.6870  67.3717 14.99364891384616"
      },
      "geometry": {
        "type": "Point",
        "coordinates": [
          -142.9319787450438,
          36.7384629879568
        ]
      }
    },
    {
      "type": "Feature",
      "properties": {
        "norad_id": 43831,
        "name": "SAUDISAT 5A",
        "group": "resource",
        "lat": 58.742049208707456,
        "lon": 44.45407965353336,
        "alt_km": 475.3351509664826,
        "timestamp": "2025-12-22T16:55:17.107873+00:00",
        "meta_object_name": "SAUDISAT 5A",
        "meta_object_id": "2018-102A",
        "meta_epoch": "2025-12-22T07:13:04.976256",
        "meta_mean_motion": 15.25767359,
        "meta_eccentricity": 0.00112653,
        "meta_inclination": 97.3337,
        "meta_ra_of_asc_node": 56.3074,
        "meta_arg_of_pericenter": 46.6716,
        "meta_mean_anomaly": 313.546,
        "meta_ephemeris_type": 0,
        "meta_classification_type": "U",
        "meta_norad_cat_id": 43831,
        "meta_element_set_no": 999,
        "meta_rev_at_epoch": 38868,
        "meta_bstar": 0.00025894682,
        "meta_mean_motion_dot": 6.552e-05,
        "meta_mean_motion_ddot": 0,
        "tle_line1": "1 43831U 18102A   25356.30075204  .00006552  00000+0  25895-3 0  9992",
        "tle_line2": "2 43831  97.3337  56.3074 0011265  46.6716 313.5460 15.25767359388688"
      },
      "geometry": {
        "type": "Point",
        "coordinates": [
          44.45407965353336,
          58.742049208707456
        ]
      }
    },
    {
      "type": "Feature",
      "properties": {
        "norad_id": 43833,
        "name": "SAUDISAT 5B",
        "group": "resource",
        "lat": 54.781742435656604,
        "lon": -110.0131228606924,
        "alt_km": 480.4259229273275,
        "timestamp": "2025-12-22T16:55:17.107883+00:00",
        "meta_object_name": "SAUDISAT 5B",
        "meta_object_id": "2018-102C",
        "meta_epoch": "2025-12-22T06:56:13.581312",
        "meta_mean_motion": 15.26115001,
        "meta_eccentricity": 0.00120123,
        "meta_inclination": 97.3433,
        "meta_ra_of_asc_node": 59.0516,
        "meta_arg_of_pericenter": 48.8361,
        "meta_mean_anomaly": 311.3911,
        "meta_ephemeris_type": 0,
        "meta_classification_type": "U",
        "meta_norad_cat_id": 43833,
        "meta_element_set_no": 999,
        "meta_rev_at_epoch": 38879,
        "meta_bstar": 0.00024178451,
        "meta_mean_motion_dot": 6.178e-05,
        "meta_mean_motion_ddot": 0,
        "tle_line1": "1 43833U 18102C   25356.28904608  .00006178  00000+0  24178-3 0  9997",
        "tle_line2": "2 43833  97.3433  59.0516 0012012  48.8361 311.3911 15.26115001388790"
      },
      "geometry": {
        "type": "Point",
        "coordinates": [
          -110.0131228606924,
          54.781742435656604
        ]
      }
    },
    {
      "type": "Feature",
      "properties": {
        "norad_id": 44622,
        "name": "GAOFEN-10R",
        "group": "resource",
        "lat": -41.12117393717403,
        "lon": -48.670758697154675,
        "alt_km": 624.0442440736988,
        "timestamp": "2025-12-22T16:55:17.107894+00:00",
        "meta_object_name": "GAOFEN-10R",
        "meta_object_id": "2019-066A",
        "meta_epoch": "2025-12-22T07:23:29.149728",
        "meta_mean_motion": 14.82823016,
        "meta_eccentricity": 0.00072168,
        "meta_inclination": 98.0291,
        "meta_ra_of_asc_node": 303.8521,
        "meta_arg_of_pericenter": 13.8747,
        "meta_mean_anomaly": 346.2663,
        "meta_ephemeris_type": 0,
        "meta_classification_type": "U",
        "meta_norad_cat_id": 44622,
        "meta_element_set_no": 999,
        "meta_rev_at_epoch": 33616,
        "meta_bstar": 0.00019083871,
        "meta_mean_motion_dot": 1.49e-05,
        "meta_mean_motion_ddot": 0,
        "tle_line1": "1 44622U 19066A   25356.30797627  .00001490  00000+0  19084-3 0  9990",
        "tle_line2": "2 44622  98.0291 303.8521 0007216  13.8747 346.2663 14.82823016336161"
      },
      "geometry": {
        "type": "Point",
        "coordinates": [
          -48.670758697154675,
          -41.12117393717403
        ]
      }
    },
    {
      "type": "Feature",
      "properties": {
        "norad_id": 44804,
        "name": "CARTOSAT-3",
        "group": "resource",
        "lat": -15.330144714890599,
        "lon": 58.219533485911064,
        "alt_km": 509.3120827503599,
        "timestamp": "2025-12-22T16:55:17.107905+00:00",
        "meta_object_name": "CARTOSAT-3",
        "meta_object_id": "2019-081A",
        "meta_epoch": "2025-12-22T05:55:26.174208",
        "meta_mean_motion": 15.19225726,
        "meta_eccentricity": 0.00137383,
        "meta_inclination": 97.4572,
        "meta_ra_of_asc_node": 55.7094,
        "meta_arg_of_pericenter": 53.3175,
        "meta_mean_anomaly": 306.932,
        "meta_ephemeris_type": 0,
        "meta_classification_type": "U",
        "meta_norad_cat_id": 44804,
        "meta_element_set_no": 999,
        "meta_rev_at_epoch": 33660,
        "meta_bstar": 0.00019145063,
        "meta_mean_motion_dot": 3.973e-05,
        "meta_mean_motion_ddot": 0,
        "tle_line1": "1 44804U 19081A   25356.24683072  .00003973  00000+0  19145-3 0  9996",
        "tle_line2": "2 44804  97.4572  55.7094 0013738  53.3175 306.9320 15.19225726336603"
      },
      "geometry": {
        "type": "Point",
        "coordinates": [
          58.219533485911064,
          -15.330144714890599
        ]
      }
    },
    {
      "type": "Feature",
      "properties": {
        "norad_id": 44819,
        "name": "GAOFEN-12 01",
        "group": "resource",
        "lat": 31.087714333250506,
        "lon": -172.52703873670464,
        "alt_km": 624.4607063815529,
        "timestamp": "2025-12-22T16:55:17.107916+00:00",
        "meta_object_name": "GAOFEN-12 01",
        "meta_object_id": "2019-082A",
        "meta_epoch": "2025-12-22T06:31:17.853888",
        "meta_mean_motion": 14.80668074,
        "meta_eccentricity": 0.00019705,
        "meta_inclination": 97.8124,
        "meta_ra_of_asc_node": 2.3025,
        "meta_arg_of_pericenter": 188.4577,
        "meta_mean_anomaly": 171.6603,
        "meta_ephemeris_type": 0,
        "meta_classification_type": "U",
        "meta_norad_cat_id": 44819,
        "meta_element_set_no": 999,
        "meta_rev_at_epoch": 32791,
        "meta_bstar": 6.7857554e-05,
        "meta_mean_motion_dot": 4.71e-06,
        "meta_mean_motion_ddot": 0,
        "tle_line1": "1 44819U 19082A   25356.27173442  .00000471  00000+0  67858-4 0  9996",
        "tle_line2": "2 44819  97.8124   2.3025 0001970 188.4577 171.6603 14.80668074327918"
      },
      "geometry": {
        "type": "Point",
        "coordinates": [
          -172.52703873670464,
          31.087714333250506
        ]
      }
    },
    {
      "type": "Feature",
      "properties": {
        "norad_id": 44873,
        "name": "CSG-1",
        "group": "resource",
        "lat": -46.63548180451167,
        "lon": -173.68856269966236,
        "alt_km": 630.017889146453,
        "timestamp": "2025-12-22T16:55:17.107926+00:00",
        "meta_object_name": "CSG-1",
        "meta_object_id": "2019-092A",
        "meta_epoch": "2025-12-22T05:47:32.315136",
        "meta_mean_motion": 14.82152562,
        "meta_eccentricity": 0.00014729,
        "meta_inclination": 97.8803,
        "meta_ra_of_asc_node": 177.4223,
        "meta_arg_of_pericenter": 85.3431,
        "meta_mean_anomaly": 274.795,
        "meta_ephemeris_type": 0,
        "meta_classification_type": "U",
        "meta_norad_cat_id": 44873,
        "meta_element_set_no": 999,
        "meta_rev_at_epoch": 32526,
        "meta_bstar": 7.4486944e-05,
        "meta_mean_motion_dot": 5.41e-06,
        "meta_mean_motion_ddot": 0,
        "tle_line1": "1 44873U 19092A   25356.24134624  .00000541  00000+0  74487-4 0  9997",
        "tle_line2": "2 44873  97.8803 177.4223 0001472  85.3431 274.7950 14.82152562325265"
      },
      "geometry": {
        "type": "Point",
        "coordinates": [
          -173.68856269966236,
          -46.63548180451167
        ]
      }
    }
  ]
}